NORAD_ID,Epoch_Time,Inclination_deg,RA_of_Asc_Node_deg,Eccentricity_e,Arg_of_Perigee_deg,Mean_Anomaly_deg,BSTAR,Mean_Motion_rev_day,TLE_Line_1,TLE_Line_2
43187,00:49.9,97.5498,238.8501,0.0008843,342.3878,17.7045,0.00051099,15.14142498,1 43187U 18014H   25337.70891122  .00009260  00000-0  51099-3 0  9991,2 43187  97.5498 238.8501 0008843 342.3878  17.7045 15.14142498429156
43187,06:58.4,97.5497,239.3089,0.000878,340.514,19.5754,0.00069499,15.14157284,1 43187U 18014H   25338.17150913  .00012630  00000-0  69499-3 0  9997,2 43187  97.5497 239.3089 0008780 340.5140  19.5754 15.14157284429228
43187,42:08.1,97.5497,239.3744,0.0008773,340.2287,19.8603,0.00073772,15.14160257,1 43187U 18014H   25338.23759401  .00013413  00000-0  73772-3 0  9990,2 43187  97.5497 239.3744 0008773 340.2287  19.8603 15.14160257429238
43187,48:16.2,97.5497,239.8331,0.0008743,338.3527,21.7334,0.00074459,15.1417131,1 43187U 18014H   25338.70018781  .00013543  00000-0  74459-3 0  9998,2 43187  97.5497 239.8331 0008743 338.3527  21.7334 15.14171310429300
43188,49:04.3,97.5502,239.0169,0.0008781,342.7785,17.3147,0.00051337,15.14171799,1 43188U 18014J   25337.70074405  .00009311  00000-0  51337-3 0  9991,2 43188  97.5502 239.0169 0008781 342.7785  17.3147 15.14171799429153
43188,05:31.2,97.5501,239.607,0.0008717,340.3609,19.7286,0.0007775,15.14191701,1 43188U 18014J   25338.29550054  .00014153  00000-0  77750-3 0  9992,2 43188  97.5501 239.6070 0008717 340.3609  19.7286 15.14191701429242
43188,01:19.4,97.5502,239.9346,0.000868,339.0049,21.0825,0.0007981,15.14199023,1 43188U 18014J   25338.62591855  .00014534  00000-0  79810-3 0  9995,2 43188  97.5502 239.9346 0008680 339.0049  21.0825 15.14199023429299
43188,36:29.0,97.5502,240.0002,0.0008659,338.7153,21.3717,0.0007813,15.1420045,1 43188U 18014J   25338.69200193  .00014226  00000-0  78130-3 0  9996,2 43188  97.5502 240.0002 0008659 338.7153  21.3717 15.14200450429301
43189,05:03.7,97.5523,239.072,0.0009931,333.9006,26.1724,0.00051117,15.14137829,1 43189U 18014K   25337.71184782  .00009265  00000-0  51117-3 0  9997,2 43189  97.5523 239.0720 0009931 333.9006  26.1724 15.14137829427700
43189,25:42.9,97.5523,239.3342,0.0009888,332.8932,27.1782,0.00064955,15.14146877,1 43189U 18014K   25337.97619075  .00011798  00000-0  64955-3 0  9991,2 43189  97.5523 239.3342 0009888 332.8932  27.1782 15.14146877427742
43189,21:31.8,97.5522,239.6619,0.0009857,331.5071,28.5621,0.00073878,15.14157021,1 43189U 18014K   25338.30661749  .00013434  00000-0  73878-3 0  9997,2 43189  97.5522 239.6619 0009857 331.5071  28.5621 15.14157021427792
43189,17:20.5,97.5522,239.9897,0.0009841,330.1852,29.8818,0.00073604,15.14164769,1 43189U 18014K   25338.63704257  .00013387  00000-0  73604-3 0  9999,2 43189  97.5522 239.9897 0009841 330.1852  29.8818 15.14164769427843
43189,52:30.2,97.5521,240.0552,0.0009811,329.8548,30.2118,0.0007576,15.14166649,1 43189U 18014K   25338.70312748  .00013782  00000-0  75760-3 0  9991,2 43189  97.5521 240.0552 0009811 329.8548  30.2118 15.14166649427856
43191,31:28.7,70.0127,158.4192,0.0019324,14.9144,345.2528,0.00023966,13.96355731,1 43191U 69082LJ  25337.93852671  .00000278  00000-0  23966-3 0  9990,2 43191  70.0127 158.4192 0019324  14.9144 345.2528 13.96355731421390
43191,40:56.1,70.0127,157.9598,0.001934,14.6322,345.534,0.00023842,13.96355884,1 43191U 69082LJ  25338.15342716  .00000276  00000-0  23842-3 0  9990,2 43191  70.0127 157.9598 0019340  14.6322 345.5340 13.96355884421425
43191,40:56.1,70.0127,157.9598,0.001934,14.6322,345.534,0.00023842,13.96355884,1 43191U 69082LJ  25338.15342717  .00000276  00000-0  23842-3 0  9991,2 43191  70.0127 157.9598 0019340  14.6322 345.5340 13.96355884421425
43191,59:50.9,70.0127,157.0411,0.0019364,14.0516,346.1124,0.0002307,13.96356136,1 43191U 69082LJ  25338.58322804  .00000266  00000-0  23070-3 0  9995,2 43191  70.0127 157.0411 0019364  14.0516 346.1124 13.96356136421489
43191,59:50.9,70.0127,157.0411,0.0019364,14.0516,346.1124,0.0002307,13.96356136,1 43191U 69082LJ  25338.58322805  .00000266  00000-0  23070-3 0  9996,2 43191  70.0127 157.0411 0019364  14.0516 346.1124 13.96356136421489
43194,43:36.3,97.6647,135.0128,0.0017758,237.0831,122.8696,0.00090218,15.2061858,1 43194U 18015C   25337.98861439  .00019831  00000-0  90218-3 0  9999,2 43194  97.6647 135.0128 0017758 237.0831 122.8696 15.20618580434971
43194,27:52.8,97.6648,135.2136,0.0017751,236.3315,123.6227,0.0010413,15.20629379,1 43194U 18015C   25338.18602750  .00022918  00000-0  10413-2 0  9999,2 43194  97.6648 135.2136 0017751 236.3315 123.6227 15.20629379435007
43194,37:23.7,97.6648,135.3475,0.0017749,235.8562,124.099,0.0010467,15.20635282,1 43194U 18015C   25338.31763554  .00023040  00000-0  10467-2 0  9990,2 43194  97.6648 135.3475 0017749 235.8562 124.0990 15.20635282435023
43194,31:10.9,97.6651,135.6822,0.001773,234.5734,125.3845,0.00096455,15.20647763,1 43194U 18015C   25338.64665378  .00021229  00000-0  96455-3 0  9990,2 43194  97.6651 135.6822 0017730 234.5734 125.3845 15.20647763435078
43194,40:41.7,97.6651,135.8161,0.0017726,234.0097,125.9495,0.00089603,15.20652187,1 43194U 18015C   25338.77826043  .00019714  00000-0  89603-3 0  9995,2 43194  97.6651 135.8161 0017726 234.0097 125.9495 15.20652187435093
43194,15:27.1,97.6651,135.883,0.0017725,233.768,126.1917,0.00086932,15.20654664,1 43194U 18015C   25338.84406365  .00019124  00000-0  86932-3 0  9991,2 43194  97.6651 135.8830 0017725 233.7680 126.1917 15.20654664435105
43431,45:32.2,43.0819,343.4375,0.011923,110.6955,250.6714,0.0013357,14.9673655,1 43431U 17034G   25337.73995660  .00017753  00000-0  13357-2 0  9999,2 43431  43.0819 343.4375 0119230 110.6955 250.6714 14.96736550450813
43431,46:01.7,43.0819,341.6428,0.0119211,112.7214,248.6277,0.0018472,14.96758122,1 43431U 17034G   25338.07363109  .00024675  00000-0  18472-2 0  9998,2 43431  43.0819 341.6428 0119211 112.7214 248.6277 14.96758122450867
43431,46:01.7,43.0819,341.6428,0.0119211,112.7214,248.6278,0.0018472,14.96758122,1 43431U 17034G   25338.07363109  .00024675  00000-0  18472-2 0  9998,2 43431  43.0819 341.6428 0119211 112.7214 248.6278 14.96758122450868
44310,51:11.7,44.9778,41.9277,0.0009117,244.8622,115.1314,0.000775,15.22986093,1 44310U 19032A   25337.66055266  .00018331  00000-0  77500-3 0  9991,2 44310  44.9778  41.9277 0009117 244.8622 115.1314 15.22986093357320
44310,26:48.3,44.978,39.0824,0.0009122,247.63,112.3615,0.0010563,15.23015525,1 44310U 19032A   25338.18528075  .00025133  00000-0  10563-2 0  9995,2 44310  44.9780  39.0824 0009122 247.6300 112.3615 15.23015525357405
44310,35:42.2,44.9781,38.3719,0.000913,247.9206,112.0706,0.0011917,15.23023585,1 44310U 19032A   25338.31646123  .00028412  00000-0  11917-2 0  9992,2 44310  44.9781  38.3719 0009130 247.9206 112.0706 15.23023585357423
44310,53:30.1,44.9781,36.9494,0.0009141,249.6789,110.311,0.0011923,15.23038329,1 44310U 19032A   25338.57882013  .00028439  00000-0  11923-2 0  9996,2 44310  44.9781  36.9494 0009141 249.6789 110.3110 15.23038329357460
44310,27:57.0,44.978,36.5936,0.0009155,250.053,109.9365,0.0011151,15.23041259,1 44310U 19032A   25338.64440929  .00026574  00000-0  11151-2 0  9991,2 44310  44.9780  36.5936 0009155 250.0530 109.9365 15.23041259357474
44311,44:57.1,44.9774,352.9837,0.0030332,289.8287,69.9325,0.00092485,15.2273727,1 44311U 19032B   25337.94788293  .00022028  00000-0  92485-3 0  9993,2 44311  44.9774 352.9837 0030332 289.8287  69.9325 15.22737270357939
44311,28:21.2,44.9773,351.9167,0.0030307,290.941,68.8228,0.0010266,15.22748729,1 44311U 19032B   25338.14468990  .00024499  00000-0  10266-2 0  9995,2 44311  44.9773 351.9167 0030307 290.9410  68.8228 15.22748729357960
44311,37:17.2,44.9771,351.2063,0.0030254,291.6302,68.1357,0.0011468,15.22755354,1 44311U 19032B   25338.27589407  .00027419  00000-0  11468-2 0  9996,2 44311  44.9771 351.2063 0030254 291.6302  68.1357 15.22755354357985
44311,20:41.2,44.9771,350.1394,0.0030247,292.7597,67.0089,0.0011422,15.22765596,1 44311U 19032B   25338.47269890  .00027315  00000-0  11422-2 0  9994,2 44311  44.9771 350.1394 0030247 292.7597  67.0089 15.22765596358014
44311,20:41.2,44.9771,350.1394,0.0030247,292.7597,67.0089,0.0011422,15.22765596,1 44311U 19032B   25338.47269891  .00027315  00000-0  11422-2 0  9995,2 44311  44.9771 350.1394 0030247 292.7597  67.0089 15.22765596358014
44312,51:04.3,44.9796,347.3913,0.0007995,288.0521,71.949,0.00079782,15.27282487,1 44312U 19032C   25337.95213318  .00021511  00000-0  79782-3 0  9997,2 44312  44.9796 347.3913 0007995 288.0521  71.9490 15.27282487357934
44312,33:37.7,44.9796,346.3201,0.0007977,289.0393,70.9625,0.00087329,15.27293197,1 44312U 19032C   25338.14835329  .00023589  00000-0  87329-3 0  9994,2 44312  44.9796 346.3201 0007977 289.0393  70.9625 15.27293197357963
44312,41:59.9,44.9796,345.606,0.0007964,289.6977,70.3046,0.00091997,15.27300385,1 44312U 19032C   25338.27916590  .00024875  00000-0  91997-3 0  9993,2 44312  44.9796 345.6060 0007964 289.6977  70.3046 15.27300385357989
44312,24:33.2,44.9795,344.5356,0.000792,290.6476,69.3557,0.00096358,15.27309621,1 44312U 19032C   25338.47538439  .00026080  00000-0  96358-3 0  9993,2 44312  44.9795 344.5356 0007920 290.6476  69.3557 15.27309621358014
44312,24:33.2,44.9795,344.5356,0.000792,290.6476,69.3557,0.00096358,15.27309621,1 44312U 19032C   25338.47538439  .00026080  00000-0  96358-3 0  9993,2 44312  44.9795 344.5356 0007920 290.6476  69.3557 15.27309621358014
44312,49:39.4,44.9796,342.3927,0.0007861,292.2597,67.7451,0.00084844,15.27325437,1 44312U 19032C   25338.86781730  .00022929  00000-0  84844-3 0  9995,2 44312  44.9796 342.3927 0007861 292.2597  67.7451 15.27325437358075
44314,28:22.5,45.0023,337.4409,0.0010355,300.8512,59.1354,0.0011352,15.31050615,1 44314U 19032E   25338.01970521  .00034622  00000-0  11352-2 0  9998,2 44314  45.0023 337.4409 0010355 300.8512  59.1354 15.31050615358083
